[{"OBJECT_NAME":"STARLINK-4216","OBJECT_ID":"2022-076AN","EPOCH":"2026-03-09T06:45:49.992768","MEAN_MOTION":15.08834943,"ECCENTRICITY":0.0001268,"INCLINATION":53.2168,"RA_OF_ASC_NODE":85.9525,"ARG_OF_PERICENTER":89.9874,"MEAN_ANOMALY":270.1264,"EPHEMERIS_TYPE":0,"CLASSIFICATION_TYPE":"U","NORAD_CAT_ID":53022,"ELEMENT_SET_NO":999,"REV_AT_EPOCH":20292,"BSTAR":6.394333e-6,"MEAN_MOTION_DOT":-1.86e-6,"MEAN_MOTION_DDOT":0},{"OBJECT_NAME":"FENGYUN 1C DEB","OBJECT_ID":"1999-025BZZ","EPOCH":"2026-03-09T13:05:44.544480","MEAN_MOTION":14.97363263,"ECCENTRICITY":0.00745573,"INCLINATION":99.0712,"RA_OF_ASC_NODE":279.0573,"ARG_OF_PERICENTER":15.484,"MEAN_ANOMALY":344.8634,"EPHEMERIS_TYPE":0,"CLASSIFICATION_TYPE":"U","NORAD_CAT_ID":31619,"ELEMENT_SET_NO":999,"REV_AT_EPOCH":64782,"BSTAR":0.0036839182,"MEAN_MOTION_DOT":0.00045478,"MEAN_MOTION_DDOT":0}]
